FENGYUN 1C DEB          
1 31990U 99025CPT 17345.20679663  .00000037  00000-0  86006-4 0  9990
2 31990  99.1991 136.3515 0262880  75.1113  45.6896 13.55992356521149
